[{"OBJECT_NAME":"HULIANWANG DIGUI-88","OBJECT_ID":"2025-231B","EPOCH":"2026-03-09T18:52:31.864224","MEAN_MOTION":13.29329776,"ECCENTRICITY":6.262e-5,"INCLINATION":49.9981,"RA_OF_ASC_NODE":172.4352,"ARG_OF_PERICENTER":208.2457,"MEAN_ANOMALY":151.8381,"EPHEMERIS_TYPE":0,"CLASSIFICATION_TYPE":"U","NORAD_CAT_ID":65996,"ELEMENT_SET_NO":999,"REV_AT_EPOCH":1966,"BSTAR":0.00013873601,"MEAN_MOTION_DOT":-6.0e-7,"MEAN_MOTION_DDOT":0},{"OBJECT_NAME":"CZ-4B DEB","OBJECT_ID":"1999-057AL","EPOCH":"2026-03-09T03:38:25.734336","MEAN_MOTION":13.81751007,"ECCENTRICITY":0.03366047,"INCLINATION":99.0989,"RA_OF_ASC_NODE":150.4294,"ARG_OF_PERICENTER":346.1883,"MEAN_ANOMALY":42.5011,"EPHEMERIS_TYPE":0,"CLASSIFICATION_TYPE":"U","NORAD_CAT_ID":26150,"ELEMENT_SET_NO":999,"REV_AT_EPOCH":30158,"BSTAR":0.00025198671,"MEAN_MOTION_DOT":3.71e-6,"MEAN_MOTION_DDOT":0}]
